     3.02           N: GNSS NAV DATA    M: Mixed            RINEX VERSION / TYPE
CONVBIN demo5 b33c                      20210222 050006 UTC PGM / RUN BY / DATE 
log: /home/pi/REPOSITORY/raw_data_from_ublox/output_ubx/raw_COMMENT             
format: u-blox                                              COMMENT             
LIDAR ITALIA GNSS Permanent Station                         COMMENT             
                                                            END OF HEADER       
E 9 2021  2 22  4 40  0  .575732515426E-02 -.125766064230E-10  .000000000000E+00
      .440000000000E+02 -.896875000000E+01  .320620497988E-08  .197928722880E+01
     -.450760126114E-06  .251006684266E-03  .869110226631E-05  .544061534500E+04
      .103200000000E+06 -.521540641785E-07  .619559923729E-01  .372529029846E-07
      .961053616198E+00  .153843750000E+03 -.268450488280E+00 -.547522806523E-08
      .312870175156E-09  .513000000000E+03  .214600000000E+04  .000000000000E+00
      .312000000000E+01  .000000000000E+00  .162981450558E-08  .162981450558E-08
      .103886000000E+06  .000000000000E+00
E31 2021  2 22  4 40  0 -.478518195450E-03 -.397903932026E-12  .000000000000E+00
      .440000000000E+02  .648125000000E+02  .261653756072E-08  .826448159649E+00
      .311806797981E-05  .186202465557E-03  .975839793682E-05  .544061872292E+04
      .103200000000E+06 -.204890966415E-07  .216238417721E+01  .102445483208E-06
      .978485137994E+00  .139250000000E+03 -.428025154954E+00 -.522343186262E-08
     -.258582199558E-09  .513000000000E+03  .214600000000E+04  .000000000000E+00
      .312000000000E+01  .000000000000E+00  .442378222942E-08  .512227416039E-08
      .103886000000E+06  .000000000000E+00
E 5 2021  2 22  4 40  0 -.302566331811E-03  .315480974677E-11  .000000000000E+00
      .440000000000E+02 -.631250000000E+01  .338728395112E-08  .239998795085E+01
     -.216066837311E-06  .223153037950E-04  .846385955811E-05  .544061352539E+04
      .103200000000E+06  .372529029846E-07  .671593096377E-01  .242143869400E-07
      .955063512332E+00  .154125000000E+03 -.146362916571E+01 -.558808990923E-08
      .293940815243E-09  .513000000000E+03  .214600000000E+04  .000000000000E+00
      .312000000000E+01  .000000000000E+00  .372529029846E-08  .442378222942E-08
      .103886000000E+06  .000000000000E+00
E36 2021  2 22  4 40  0  .437362003140E-03 -.508748598804E-11  .000000000000E+00
      .440000000000E+02 -.558750000000E+02  .284904724568E-08 -.215100764409E+01
     -.260770320892E-05  .366418622434E-03  .222399830818E-05  .544060806465E+04
      .103200000000E+06 -.558793544769E-07 -.203941931343E+01 -.260770320892E-07
      .993856400074E+00  .310625000000E+03 -.107844972578E+01 -.563237746827E-08
      .121433629627E-10  .513000000000E+03  .214600000000E+04  .000000000000E+00
      .312000000000E+01  .000000000000E+00  .558793544769E-08  .628642737865E-08
      .103886000000E+06  .000000000000E+00
E15 2021  2 22  4 40  0  .828098505735E-03 -.190425453184E-11  .000000000000E+00
      .440000000000E+02 -.786875000000E+02  .282583199296E-08  .266589513118E+01
     -.360980629921E-05  .414100708440E-03  .207684934139E-05  .544060809708E+04
      .103200000000E+06 -.558793544769E-08 -.203944599705E+01  .100582838058E-06
      .993809495995E+00  .309093750000E+03 -.117911333240E+01 -.572773858330E-08
      .678599694973E-11  .513000000000E+03  .214600000000E+04  .000000000000E+00
      .312000000000E+01  .000000000000E+00  .628642737865E-08  .698491930962E-08
      .103886000000E+06  .000000000000E+00
E 4 2021  2 22  4 40  0 -.714857771527E-03 -.791544607637E-11  .000000000000E+00
      .440000000000E+02 -.890625000000E+01  .325084969665E-08 -.199047692388E+01
     -.590458512306E-06  .109324697405E-03  .861845910549E-05  .544061352730E+04
      .103200000000E+06  .391155481339E-07  .672434025576E-01 -.428408384323E-07
      .955093917621E+00  .151343750000E+03 -.178136025850E+01 -.544522681555E-08
      .279297348141E-09  .513000000000E+03  .214600000000E+04  .000000000000E+00
      .312000000000E+01  .000000000000E+00 -.302679836750E-08 -.349245965481E-08
      .103886000000E+06  .000000000000E+00
R 4 2021  2 22  4 45  0  .749733299017E-04  .181898940355E-11  .103920000000E+06
      .621342236328E+04 -.277958869934E+00 -.186264514923E-08  .000000000000E+00
     -.231754560547E+05  .116613864899E+01 -.186264514923E-08  .600000000000E+01
      .869571533203E+04  .331595516205E+01  .931322574615E-09  .000000000000E+00
G 5 2021  2 22  6  0  0 -.343620777130E-04 -.102318153949E-11  .000000000000E+00
      .950000000000E+02 -.707500000000E+02  .463055002385E-08  .500902078022E+00
     -.344589352608E-05  .600054115057E-02  .921078026295E-05  .515382594490E+04
      .108000000000E+06 -.633299350739E-07 -.805079577127E+00  .540167093277E-07
      .955381236195E+00  .198062500000E+03  .881942021545E+00 -.810033741157E-08
      .757174396496E-10  .100000000000E+01  .214600000000E+04  .000000000000E+00
      .200000000000E+01  .000000000000E+00 -.111758708954E-07  .950000000000E+02
      .104046000000E+06  .400000000000E+01
